STARLINK-4322           
1 53078U 22077AM  26068.46137179  .00000422  00000+0  37430-4 0  9999
2 53078  97.6044 249.9874 0002346 125.0708 235.0737 15.01263442200889
TOMORROW-S7             
1 63631U 25081B   26068.64931870  .00002135  00000+0  19093-3 0  9990
2 63631  45.3909 132.5570 0000463 121.9907 238.1016 14.99242141 48231
