[{"OBJECT_NAME":"STARLINK-4322","OBJECT_ID":"2022-077AM","EPOCH":"2026-03-09T11:04:22.522656","MEAN_MOTION":15.01263442,"ECCENTRICITY":0.00023461,"INCLINATION":97.6044,"RA_OF_ASC_NODE":249.9874,"ARG_OF_PERICENTER":125.0708,"MEAN_ANOMALY":235.0737,"EPHEMERIS_TYPE":0,"CLASSIFICATION_TYPE":"U","NORAD_CAT_ID":53078,"ELEMENT_SET_NO":999,"REV_AT_EPOCH":20088,"BSTAR":3.7429789e-5,"MEAN_MOTION_DOT":4.22e-6,"MEAN_MOTION_DDOT":0},{"OBJECT_NAME":"TOMORROW-S7","OBJECT_ID":"2025-081B","EPOCH":"2026-03-09T15:35:01.135680","MEAN_MOTION":14.99242141,"ECCENTRICITY":4.629e-5,"INCLINATION":45.3909,"RA_OF_ASC_NODE":132.557,"ARG_OF_PERICENTER":121.9907,"MEAN_ANOMALY":238.1016,"EPHEMERIS_TYPE":0,"CLASSIFICATION_TYPE":"U","NORAD_CAT_ID":63631,"ELEMENT_SET_NO":999,"REV_AT_EPOCH":4823,"BSTAR":0.00019092565,"MEAN_MOTION_DOT":2.135e-5,"MEAN_MOTION_DDOT":0}]
